[{"OBJECT_NAME":"AFR-1","OBJECT_ID":"2023-084AJ","EPOCH":"2026-03-09T23:02:07.499328","MEAN_MOTION":15.27543824,"ECCENTRICITY":0.00099838,"INCLINATION":97.6099,"RA_OF_ASC_NODE":203.4313,"ARG_OF_PERICENTER":334.9676,"MEAN_ANOMALY":25.1077,"EPHEMERIS_TYPE":0,"CLASSIFICATION_TYPE":"U","NORAD_CAT_ID":56964,"ELEMENT_SET_NO":999,"REV_AT_EPOCH":15207,"BSTAR":0.00024843733,"MEAN_MOTION_DOT":6.624e-5,"MEAN_MOTION_DDOT":0},{"OBJECT_NAME":"STARLINK-36473","OBJECT_ID":"2026-002W","EPOCH":"2026-03-09T18:38:30.151968","MEAN_MOTION":15.27591602,"ECCENTRICITY":0.00016319,"INCLINATION":43.0009,"RA_OF_ASC_NODE":324.6501,"ARG_OF_PERICENTER":269.827,"MEAN_ANOMALY":90.2395,"EPHEMERIS_TYPE":0,"CLASSIFICATION_TYPE":"U","NORAD_CAT_ID":67325,"ELEMENT_SET_NO":999,"REV_AT_EPOCH":1125,"BSTAR":0.00097584716,"MEAN_MOTION_DOT":0.00026698,"MEAN_MOTION_DDOT":0}]
